[{"OBJECT_NAME":"YAOGAN-36 02B","OBJECT_ID":"2022-133B","EPOCH":"2026-03-09T22:42:31.775904","MEAN_MOTION":15.30199518,"ECCENTRICITY":0.00056841,"INCLINATION":34.9983,"RA_OF_ASC_NODE":22.5268,"ARG_OF_PERICENTER":273.0351,"MEAN_ANOMALY":86.9715,"EPHEMERIS_TYPE":0,"CLASSIFICATION_TYPE":"U","NORAD_CAT_ID":54043,"ELEMENT_SET_NO":999,"REV_AT_EPOCH":18962,"BSTAR":0.00051218814,"MEAN_MOTION_DOT":0.00015352,"MEAN_MOTION_DDOT":0},{"OBJECT_NAME":"CZ-2C R\/B","OBJECT_ID":"2023-032C","EPOCH":"2026-03-09T19:42:47.332224","MEAN_MOTION":15.40353492,"ECCENTRICITY":0.00338763,"INCLINATION":97.5715,"RA_OF_ASC_NODE":173.3039,"ARG_OF_PERICENTER":15.3476,"MEAN_ANOMALY":344.8789,"EPHEMERIS_TYPE":0,"CLASSIFICATION_TYPE":"U","NORAD_CAT_ID":55846,"ELEMENT_SET_NO":999,"REV_AT_EPOCH":16638,"BSTAR":0.00042068091,"MEAN_MOTION_DOT":0.00017253,"MEAN_MOTION_DDOT":0}]
